[{"OBJECT_NAME":"STARLINK-2588","OBJECT_ID":"2021-038AX","EPOCH":"2026-03-09T22:36:04.296960","MEAN_MOTION":15.15106652,"ECCENTRICITY":0.00059986,"INCLINATION":53.0735,"RA_OF_ASC_NODE":337.743,"ARG_OF_PERICENTER":113.5514,"MEAN_ANOMALY":246.611,"EPHEMERIS_TYPE":0,"CLASSIFICATION_TYPE":"U","NORAD_CAT_ID":48398,"ELEMENT_SET_NO":999,"REV_AT_EPOCH":26860,"BSTAR":0.0020267128,"MEAN_MOTION_DOT":0.00038318,"MEAN_MOTION_DDOT":0},{"OBJECT_NAME":"SL-3 R\/B","OBJECT_ID":"1982-013B","EPOCH":"2026-03-09T21:53:00.854016","MEAN_MOTION":15.22021316,"ECCENTRICITY":0.00226549,"INCLINATION":81.1762,"RA_OF_ASC_NODE":160.5103,"ARG_OF_PERICENTER":176.767,"MEAN_ANOMALY":183.3713,"EPHEMERIS_TYPE":0,"CLASSIFICATION_TYPE":"U","NORAD_CAT_ID":13068,"ELEMENT_SET_NO":999,"REV_AT_EPOCH":40438,"BSTAR":0.00024250009,"MEAN_MOTION_DOT":5.603e-5,"MEAN_MOTION_DDOT":0}]
